[{"OBJECT_NAME":"TITAN 34B R/B","OBJECT_ID":"1987-015B","EPOCH":"2026-03-14T08:22:58.352736","MEAN_MOTION":2.04989007,"ECCENTRICITY":0.71403942,"INCLINATION":63.035,"RA_OF_ASC_NODE":124.7419,"ARG_OF_PERICENTER":265.3685,"MEAN_ANOMALY":17.522,"EPHEMERIS_TYPE":0,"CLASSIFICATION_TYPE":"U","NORAD_CAT_ID":17507,"ELEMENT_SET_NO":999,"REV_AT_EPOCH":5056,"BSTAR":0,"MEAN_MOTION_DOT":1.173e-5,"MEAN_MOTION_DDOT":0},{"OBJECT_NAME":"GOES 7","OBJECT_ID":"1987-022A","EPOCH":"2026-03-13T07:51:33.482304","MEAN_MOTION":0.9989808,"ECCENTRICITY":0.00040914,"INCLINATION":13.0128,"RA_OF_ASC_NODE":338.3128,"ARG_OF_PERICENTER":16.487,"MEAN_ANOMALY":148.7526,"EPHEMERIS_TYPE":0,"CLASSIFICATION_TYPE":"U","NORAD_CAT_ID":17561,"ELEMENT_SET_NO":999,"REV_AT_EPOCH":12600,"BSTAR":0,"MEAN_MOTION_DOT":1.08e-6,"MEAN_MOTION_DDOT":0},{"OBJECT_NAME":"SL-12 R/B(2)","OBJECT_ID":"1987-028D","EPOCH":"2026-03-14T21:05:38.556672","MEAN_MOTION":0.99875287,"ECCENTRICITY":0.00251767,"INCLINATION":11.2871,"RA_OF_ASC_NODE":321.4705,"ARG_OF_PERICENTER":111.8362,"MEAN_ANOMALY":77.0241,"EPHEMERIS_TYPE":0,"CLASSIFICATION_TYPE":"U","NORAD_CAT_ID":17705,"ELEMENT_SET_NO":999,"REV_AT_EPOCH":14352,"BSTAR":0,"MEAN_MOTION_DOT":6.1e-7,"MEAN_MOTION_DDOT":0},{"OBJECT_NAME":"AGILA 1 (PALAPA B2P)","OBJECT_ID":"1987-029A","EPOCH":"2026-03-14T15:26:16.812960","MEAN_MOTION":0.99909016,"ECCENTRICITY":0.00031898,"INCLINATION":14.4088,"RA_OF_ASC_NODE":348.8937,"ARG_OF_PERICENTER":10.934,"MEAN_ANOMALY":155.4233,"EPHEMERIS_TYPE":0,"CLASSIFICATION_TYPE":"U","NORAD_CAT_ID":17706,"ELEMENT_SET_NO":999,"REV_AT_EPOCH":4158,"BSTAR":0,"MEAN_MOTION_DOT":-3.21e-6,"MEAN_MOTION_DDOT":0},{"OBJECT_NAME":"SL-12 R/B(2)","OBJECT_ID":"1976-092F","EPOCH":"2026-03-14T20:53:04.388352","MEAN_MOTION":1.00224086,"ECCENTRICITY":0.00149564,"INCLINATION":3.7051,"RA_OF_ASC_NODE":271.5308,"ARG_OF_PERICENTER":193.0634,"MEAN_ANOMALY":103.9341,"EPHEMERIS_TYPE":0,"CLASSIFICATION_TYPE":"U","NORAD_CAT_ID":17872,"ELEMENT_SET_NO":999,"REV_AT_EPOCH":11797,"BSTAR":0,"MEAN_MOTION_DOT":-1.57e-6,"MEAN_MOTION_DDOT":0},{"OBJECT_NAME":"SL-12 R/B(2)","OBJECT_ID":"1979-035E","EPOCH":"2026-03-14T19:54:11.659104","MEAN_MOTION":1.00149011,"ECCENTRICITY":0.00254283,"INCLINATION":5.457,"RA_OF_ASC_NODE":283.0221,"ARG_OF_PERICENTER":252.389,"MEAN_ANOMALY":333.284,"EPHEMERIS_TYPE":0,"CLASSIFICATION_TYPE":"U","NORAD_CAT_ID":17873,"ELEMENT_SET_NO":999,"REV_AT_EPOCH":18422,"BSTAR":0,"MEAN_MOTION_DOT":1.46e-6,"MEAN_MOTION_DDOT":0},{"OBJECT_NAME":"SL-12 R/B(2)","OBJECT_ID":"1984-016F","EPOCH":"2026-03-14T19:01:48.586080","MEAN_MOTION":1.00297612,"ECCENTRICITY":0.00338933,"INCLINATION":8.7554,"RA_OF_ASC_NODE":311.495,"ARG_OF_PERICENTER":228.5723,"MEAN_ANOMALY":330.8948,"EPHEMERIS_TYPE":0,"CLASSIFICATION_TYPE":"U","NORAD_CAT_ID":17874,"ELEMENT_SET_NO":999,"REV_AT_EPOCH":12190,"BSTAR":0,"MEAN_MOTION_DOT":8.2e-7,"MEAN_MOTION_DDOT":0},{"OBJECT_NAME":"SL-12 R/B(2)","OBJECT_ID":"1979-087C","EPOCH":"2026-03-14T21:56:28.309056","MEAN_MOTION":1.00479098,"ECCENTRICITY":0.00463855,"INCLINATION":5.5715,"RA_OF_ASC_NODE":284.3728,"ARG_OF_PERICENTER":357.5897,"MEAN_ANOMALY":164.7092,"EPHEMERIS_TYPE":0,"CLASSIFICATION_TYPE":"U","NORAD_CAT_ID":17939,"ELEMENT_SET_NO":999,"REV_AT_EPOCH":4649,"BSTAR":0,"MEAN_MOTION_DOT":-2.89e-6,"MEAN_MOTION_DDOT":0},{"OBJECT_NAME":"COSMOS 1888","OBJECT_ID":"1987-084A","EPOCH":"2026-03-14T19:46:54.972768","MEAN_MOTION":1.00168029,"ECCENTRICITY":0.00023496,"INCLINATION":10.9294,"RA_OF_ASC_NODE":326.6828,"ARG_OF_PERICENTER":302.8794,"MEAN_ANOMALY":302.8453,"EPHEMERIS_TYPE":0,"CLASSIFICATION_TYPE":"U","NORAD_CAT_ID":18384,"ELEMENT_SET_NO":999,"REV_AT_EPOCH":14074,"BSTAR":0,"MEAN_MOTION_DOT":-3.14e-6,"MEAN_MOTION_DDOT":0},{"OBJECT_NAME":"SL-12 R/B(2)","OBJECT_ID":"1987-084D","EPOCH":"2026-03-14T09:24:18.783648","MEAN_MOTION":1.00056009,"ECCENTRICITY":0.00289675,"INCLINATION":11.0825,"RA_OF_ASC_NODE":327.2854,"ARG_OF_PERICENTER":251.1825,"MEAN_ANOMALY":282.9855,"EPHEMERIS_TYPE":0,"CLASSIFICATION_TYPE":"U","NORAD_CAT_ID":18387,"ELEMENT_SET_NO":999,"REV_AT_EPOCH":14782,"BSTAR":0,"MEAN_MOTION_DOT":5.6e-7,"MEAN_MOTION_DDOT":0},{"OBJECT_NAME":"COSMOS 1894","OBJECT_ID":"1987-091A","EPOCH":"2026-03-14T00:03:38.835648","MEAN_MOTION":1.00264015,"ECCENTRICITY":0.0005434,"INCLINATION":10.8894,"RA_OF_ASC_NODE":326.156,"ARG_OF_PERICENTER":11.6526,"MEAN_ANOMALY":173.6336,"EPHEMERIS_TYPE":0,"CLASSIFICATION_TYPE":"U","NORAD_CAT_ID":18443,"ELEMENT_SET_NO":999,"REV_AT_EPOCH":11986,"BSTAR":0,"MEAN_MOTION_DOT":-1.72e-6,"MEAN_MOTION_DDOT":0},{"OBJECT_NAME":"SL-12 R/B(2)","OBJECT_ID":"1987-091D","EPOCH":"2026-03-14T12:37:18.502176","MEAN_MOTION":1.00231381,"ECCENTRICITY":0.00222782,"INCLINATION":10.9226,"RA_OF_ASC_NODE":326.3225,"ARG_OF_PERICENTER":266.4846,"MEAN_ANOMALY":273.9047,"EPHEMERIS_TYPE":0,"CLASSIFICATION_TYPE":"U","NORAD_CAT_ID":18446,"ELEMENT_SET_NO":999,"REV_AT_EPOCH":12905,"BSTAR":0,"MEAN_MOTION_DOT":-2.55e-6,"MEAN_MOTION_DDOT":0},{"OBJECT_NAME":"TVSAT 1","OBJECT_ID":"1987-095A","EPOCH":"2026-03-14T21:21:31.660992","MEAN_MOTION":0.98922132,"ECCENTRICITY":0.00607686,"INCLINATION":11.3781,"RA_OF_ASC_NODE":328.5699,"ARG_OF_PERICENTER":129.939,"MEAN_ANOMALY":219.1158,"EPHEMERIS_TYPE":0,"CLASSIFICATION_TYPE":"U","NORAD_CAT_ID":18570,"ELEMENT_SET_NO":999,"REV_AT_EPOCH":12790,"BSTAR":0,"MEAN_MOTION_DOT":-1.51e-6,"MEAN_MOTION_DDOT":0},{"OBJECT_NAME":"COSMOS 1897","OBJECT_ID":"1987-096A","EPOCH":"2026-03-14T20:35:13.144128","MEAN_MOTION":1.00323376,"ECCENTRICITY":0.00052735,"INCLINATION":11.1549,"RA_OF_ASC_NODE":327.5121,"ARG_OF_PERICENTER":130.2127,"MEAN_ANOMALY":96.0141,"EPHEMERIS_TYPE":0,"CLASSIFICATION_TYPE":"U","NORAD_CAT_ID":18575,"ELEMENT_SET_NO":999,"REV_AT_EPOCH":14024,"BSTAR":0,"MEAN_MOTION_DOT":-8.5e-7,"MEAN_MOTION_DDOT":0},{"OBJECT_NAME":"SL-12 R/B(2)","OBJECT_ID":"1987-096D","EPOCH":"2026-03-14T09:58:14.074752","MEAN_MOTION":1.00572605,"ECCENTRICITY":0.0021978,"INCLINATION":10.9489,"RA_OF_ASC_NODE":326.7816,"ARG_OF_PERICENTER":249.2701,"MEAN_ANOMALY":37.1281,"EPHEMERIS_TYPE":0,"CLASSIFICATION_TYPE":"U","NORAD_CAT_ID":18578,"ELEMENT_SET_NO":999,"REV_AT_EPOCH":13707,"BSTAR":0,"MEAN_MOTION_DOT":-2.89e-6,"MEAN_MOTION_DDOT":0},{"OBJECT_NAME":"RADUGA 21","OBJECT_ID":"1987-100A","EPOCH":"2026-03-14T06:13:59.534976","MEAN_MOTION":1.00358446,"ECCENTRICITY":0.00016146,"INCLINATION":11.4417,"RA_OF_ASC_NODE":325.933,"ARG_OF_PERICENTER":314.1122,"MEAN_ANOMALY":226.4127,"EPHEMERIS_TYPE":0,"CLASSIFICATION_TYPE":"U","NORAD_CAT_ID":18631,"ELEMENT_SET_NO":999,"REV_AT_EPOCH":14013,"BSTAR":0,"MEAN_MOTION_DOT":-2.4e-7,"MEAN_MOTION_DDOT":0},{"OBJECT_NAME":"SL-12 R/B(2)","OBJECT_ID":"1987-109D","EPOCH":"2026-03-14T06:17:21.711840","MEAN_MOTION":1.00839312,"ECCENTRICITY":0.00675224,"INCLINATION":11.0154,"RA_OF_ASC_NODE":327.271,"ARG_OF_PERICENTER":278.7661,"MEAN_ANOMALY":273.9411,"EPHEMERIS_TYPE":0,"CLASSIFICATION_TYPE":"U","NORAD_CAT_ID":18718,"ELEMENT_SET_NO":999,"REV_AT_EPOCH":13110,"BSTAR":0,"MEAN_MOTION_DOT":-1.69e-6,"MEAN_MOTION_DDOT":0},{"OBJECT_NAME":"COSMOS 1922","OBJECT_ID":"1988-013A","EPOCH":"2026-03-14T04:00:03.159072","MEAN_MOTION":2.00555594,"ECCENTRICITY":0.58828978,"INCLINATION":68.7597,"RA_OF_ASC_NODE":77.9937,"ARG_OF_PERICENTER":46.0145,"MEAN_ANOMALY":349.6187,"EPHEMERIS_TYPE":0,"CLASSIFICATION_TYPE":"U","NORAD_CAT_ID":18881,"ELEMENT_SET_NO":999,"REV_AT_EPOCH":27862,"BSTAR":0,"MEAN_MOTION_DOT":7.79e-6,"MEAN_MOTION_DDOT":0},{"OBJECT_NAME":"SL-6 R/B(2)","OBJECT_ID":"1988-013C","EPOCH":"2026-03-14T15:42:52.661088","MEAN_MOTION":2.04042176,"ECCENTRICITY":0.65885418,"INCLINATION":65.1548,"RA_OF_ASC_NODE":301.7138,"ARG_OF_PERICENTER":24.8781,"MEAN_ANOMALY":101.1891,"EPHEMERIS_TYPE":0,"CLASSIFICATION_TYPE":"U","NORAD_CAT_ID":18883,"ELEMENT_SET_NO":999,"REV_AT_EPOCH":28334,"BSTAR":0,"MEAN_MOTION_DOT":-4.29e-6,"MEAN_MOTION_DDOT":0},{"OBJECT_NAME":"STTW-2","OBJECT_ID":"1988-014A","EPOCH":"2026-03-14T20:22:34.443264","MEAN_MOTION":1.00302534,"ECCENTRICITY":0.00032142,"INCLINATION":13.3392,"RA_OF_ASC_NODE":340.3691,"ARG_OF_PERICENTER":184.2888,"MEAN_ANOMALY":23.2873,"EPHEMERIS_TYPE":0,"CLASSIFICATION_TYPE":"U","NORAD_CAT_ID":18922,"ELEMENT_SET_NO":999,"REV_AT_EPOCH":13916,"BSTAR":0,"MEAN_MOTION_DOT":-5.8e-7,"MEAN_MOTION_DDOT":0},{"OBJECT_NAME":"MOLNIYA 1-71","OBJECT_ID":"1988-017A","EPOCH":"2026-02-26T18:30:09.464832","MEAN_MOTION":2.00667207,"ECCENTRICITY":0.7364877,"INCLINATION":62.0619,"RA_OF_ASC_NODE":273.4988,"ARG_OF_PERICENTER":266.5732,"MEAN_ANOMALY":15.1402,"EPHEMERIS_TYPE":0,"CLASSIFICATION_TYPE":"U","NORAD_CAT_ID":18946,"ELEMENT_SET_NO":999,"REV_AT_EPOCH":27814,"BSTAR":-8.1018e-5,"MEAN_MOTION_DOT":1.634e-5,"MEAN_MOTION_DDOT":0},{"OBJECT_NAME":"SL-6 R/B(2)","OBJECT_ID":"1988-017D","EPOCH":"2026-03-13T11:35:48.021216","MEAN_MOTION":2.1012382,"ECCENTRICITY":0.7079592,"INCLINATION":62.335,"RA_OF_ASC_NODE":208.5912,"ARG_OF_PERICENTER":260.5705,"MEAN_ANOMALY":20.065,"EPHEMERIS_TYPE":0,"CLASSIFICATION_TYPE":"U","NORAD_CAT_ID":18949,"ELEMENT_SET_NO":999,"REV_AT_EPOCH":27086,"BSTAR":0,"MEAN_MOTION_DOT":-8.5e-7,"MEAN_MOTION_DDOT":0},{"OBJECT_NAME":"SPACENET 3R","OBJECT_ID":"1988-018A","EPOCH":"2026-03-13T00:05:30.128352","MEAN_MOTION":0.99663451,"ECCENTRICITY":0.00051872,"INCLINATION":14.6825,"RA_OF_ASC_NODE":0.4146,"ARG_OF_PERICENTER":291.1278,"MEAN_ANOMALY":261.8664,"EPHEMERIS_TYPE":0,"CLASSIFICATION_TYPE":"U","NORAD_CAT_ID":18951,"ELEMENT_SET_NO":999,"REV_AT_EPOCH":12365,"BSTAR":0,"MEAN_MOTION_DOT":1.8e-7,"MEAN_MOTION_DDOT":0},{"OBJECT_NAME":"COSMOS 1940","OBJECT_ID":"1988-034A","EPOCH":"2026-03-14T22:13:19.193376","MEAN_MOTION":1.0065831,"ECCENTRICITY":0.00221691,"INCLINATION":11.0973,"RA_OF_ASC_NODE":327.1934,"ARG_OF_PERICENTER":296.2369,"MEAN_ANOMALY":247.2139,"EPHEMERIS_TYPE":0,"CLASSIFICATION_TYPE":"U","NORAD_CAT_ID":19073,"ELEMENT_SET_NO":999,"REV_AT_EPOCH":12040,"BSTAR":0,"MEAN_MOTION_DOT":7.4e-7,"MEAN_MOTION_DDOT":0}]
